start=new Date('2021-11-11T00:00:00.000Z').valueOf();
sats=[{"RCS_SIZE":"LARGE","INCLINATION":"53.0533","NORAD_CAT_ID":"46796","SEMIMAJOR_AXIS":"6925.303","PERIOD":"95.591","ELEMENT_SET_NO":"999","OBJECT_NAME":"STARLINK-1944","MEAN_ANOMALY":"289.4184","FILE":"3211038","CLASSIFICATION_TYPE":"U","REF_FRAME":"TEME","BSTAR":"0.00032866000000","MEAN_MOTION_DOT":"0.00004619","PERIAPSIS":"546.059","CENTER_NAME":"EARTH","GP_ID":"189425116","MEAN_MOTION_DDOT":"0.0000000000000","TIME_SYSTEM":"UTC","ARG_OF_PERICENTER":"70.6978","ECCENTRICITY":"0.00016010","TLE_LINE1":"1 46796U 20074BK  21314.90906267  .00004619  00000-0  32866-3 0  9993","REV_AT_EPOCH":"5870","OBJECT_TYPE":"PAYLOAD","SITE":"AFETR","RA_OF_ASC_NODE":"203.5272","DECAY_DATE":null,"APOAPSIS":"548.276","EPHEMERIS_TYPE":"0","LAUNCH_DATE":"2020-10-24","EPOCH":"2021-11-10T21:49:03.014688","MEAN_ELEMENT_THEORY":"SGP4","COUNTRY_CODE":"US","TLE_LINE2":"2 46796  53.0533 203.5272 0001601  70.6978 289.4184 15.06414983 58706","OBJECT_ID":"2020-074BK","MEAN_MOTION":"15.06414983"},{"APOAPSIS":"409.022","DECAY_DATE":null,"EPHEMERIS_TYPE":"0","RA_OF_ASC_NODE":"174.2148","OBJECT_TYPE":"PAYLOAD","REV_AT_EPOCH":"5880","TLE_LINE1":"1 46797U 20074BL  21314.31719821  .00185270  00000-0  28699-2 0  9998","SITE":"AFETR","COUNTRY_CODE":"US","TLE_LINE2":"2 46797  53.0560 174.2148 0001095 133.1862 226.9239 15.52895462 58801","MEAN_MOTION":"15.52895462","OBJECT_ID":"2020-074BL","EPOCH":"2021-11-10T07:36:45.925344","LAUNCH_DATE":"2020-10-24","MEAN_ELEMENT_THEORY":"SGP4","BSTAR":"0.00286990000000","FILE":"3210986","REF_FRAME":"TEME","CLASSIFICATION_TYPE":"U","OBJECT_NAME":"STARLINK-1947","PERIOD":"92.730","ELEMENT_SET_NO":"999","MEAN_ANOMALY":"226.9239","INCLINATION":"53.0560","NORAD_CAT_ID":"46797","RCS_SIZE":"LARGE","SEMIMAJOR_AXIS":"6786.414","ECCENTRICITY":"0.00010950","ARG_OF_PERICENTER":"133.1862","TIME_SYSTEM":"UTC","GP_ID":"189401893","PERIAPSIS":"407.536","MEAN_MOTION_DOT":"0.00185270","CENTER_NAME":"EARTH","MEAN_MOTION_DDOT":"0.0000000000000"},{"ECCENTRICITY":"0.00014740","ARG_OF_PERICENTER":"71.4204","TIME_SYSTEM":"UTC","MEAN_MOTION_DDOT":"0.0000000000000","CENTER_NAME":"EARTH","PERIAPSIS":"546.152","MEAN_MOTION_DOT":"0.00000433","GP_ID":"189424138","BSTAR":"0.00004792100000","CLASSIFICATION_TYPE":"U","REF_FRAME":"TEME","FILE":"3211038","MEAN_ANOMALY":"288.6945","PERIOD":"95.591","ELEMENT_SET_NO":"999","OBJECT_NAME":"STARLINK-1948","SEMIMAJOR_AXIS":"6925.308","RCS_SIZE":"LARGE","INCLINATION":"53.0536","NORAD_CAT_ID":"46798","TLE_LINE2":"2 46798  53.0536 228.3935 0001474  71.4204 288.6945 15.06413324 58367","OBJECT_ID":"2020-074BM","MEAN_MOTION":"15.06413324","COUNTRY_CODE":"US","MEAN_ELEMENT_THEORY":"SGP4","LAUNCH_DATE":"2020-10-24","EPOCH":"2021-11-10T22:34:47.459712","EPHEMERIS_TYPE":"0","DECAY_DATE":null,"APOAPSIS":"548.194","RA_OF_ASC_NODE":"228.3935","SITE":"AFETR","TLE_LINE1":"1 46798U 20074BM  21314.94082708  .00000433  00000-0  47921-4 0  9993","REV_AT_EPOCH":"5836","OBJECT_TYPE":"PAYLOAD"},{"SITE":"AFETR","TLE_LINE1":"1 47122U 20088A   21314.82889734  .00000354  00000-0  42676-4 0  9995","REV_AT_EPOCH":"5371","OBJECT_TYPE":"PAYLOAD","EPHEMERIS_TYPE":"0","DECAY_DATE":null,"APOAPSIS":"548.206","RA_OF_ASC_NODE":"193.8881","TLE_LINE2":"2 47122  53.0536 193.8881 0001406  62.1992 297.9139 15.06393756 53719","MEAN_MOTION":"15.06393756","OBJECT_ID":"2020-088A","COUNTRY_CODE":"US","MEAN_ELEMENT_THEORY":"SGP4","LAUNCH_DATE":"2020-11-25","EPOCH":"2021-11-10T19:53:36.730176","MEAN_ANOMALY":"297.9139","PERIOD":"95.593","ELEMENT_SET_NO":"999","OBJECT_NAME":"STARLINK-1777","SEMIMAJOR_AXIS":"6925.368","RCS_SIZE":"LARGE","NORAD_CAT_ID":"47122","INCLINATION":"53.0536","BSTAR":"0.00004267600000","CLASSIFICATION_TYPE":"U","REF_FRAME":"TEME","FILE":"3211038","TIME_SYSTEM":"UTC","MEAN_MOTION_DDOT":"0.0000000000000","PERIAPSIS":"546.259","MEAN_MOTION_DOT":"0.00000354","CENTER_NAME":"EARTH","GP_ID":"189423927","ECCENTRICITY":"0.00014060","ARG_OF_PERICENTER":"62.1992"},{"SITE":"AFETR","OBJECT_TYPE":"PAYLOAD","REV_AT_EPOCH":"5366","TLE_LINE1":"1 47124U 20088C   21314.94728855  .00006103  00000-0  42805-3 0  9997","RA_OF_ASC_NODE":"198.3687","EPHEMERIS_TYPE":"0","APOAPSIS":"548.181","DECAY_DATE":null,"MEAN_ELEMENT_THEORY":"SGP4","EPOCH":"2021-11-10T22:44:05.730720","LAUNCH_DATE":"2020-11-25","MEAN_MOTION":"15.06416190","TLE_LINE2":"2 47124  53.0523 198.3687 0001468  66.1660 293.9482 15.06416190 53664","OBJECT_ID":"2020-088C","COUNTRY_CODE":"US","SEMIMAJOR_AXIS":"6925.299","NORAD_CAT_ID":"47124","INCLINATION":"53.0523","RCS_SIZE":"LARGE","MEAN_ANOMALY":"293.9482","OBJECT_NAME":"STARLINK-1785","ELEMENT_SET_NO":"999","PERIOD":"95.591","REF_FRAME":"TEME","CLASSIFICATION_TYPE":"U","FILE":"3211038","BSTAR":"0.00042805000000","MEAN_MOTION_DDOT":"0.0000000000000","GP_ID":"189424655","PERIAPSIS":"546.147","CENTER_NAME":"EARTH","MEAN_MOTION_DOT":"0.00006103","TIME_SYSTEM":"UTC","ARG_OF_PERICENTER":"66.1660","ECCENTRICITY":"0.00014680"},{"SITE":"AFETR","OBJECT_TYPE":"PAYLOAD","REV_AT_EPOCH":"5373","TLE_LINE1":"1 47126U 20088E   21314.92104299 -.00000429  00000-0 -98814-5 0  9997","RA_OF_ASC_NODE":"193.4804","EPHEMERIS_TYPE":"0","APOAPSIS":"548.234","DECAY_DATE":null,"MEAN_ELEMENT_THEORY":"SGP4","EPOCH":"2021-11-10T22:06:18.114336","LAUNCH_DATE":"2020-11-25","OBJECT_ID":"2020-088E","TLE_LINE2":"2 47126  53.0521 193.4804 0001511  64.4605 295.6540 15.06408569 53733","MEAN_MOTION":"15.06408569","COUNTRY_CODE":"US","SEMIMAJOR_AXIS":"6925.322","NORAD_CAT_ID":"47126","INCLINATION":"53.0521","RCS_SIZE":"LARGE","MEAN_ANOMALY":"295.6540","OBJECT_NAME":"STARLINK-1812","PERIOD":"95.592","ELEMENT_SET_NO":"999","REF_FRAME":"TEME","CLASSIFICATION_TYPE":"U","FILE":"3211038","BSTAR":"-0.00000988140000","MEAN_MOTION_DDOT":"0.0000000000000","GP_ID":"189424853","PERIAPSIS":"546.141","MEAN_MOTION_DOT":"-0.00000429","CENTER_NAME":"EARTH","TIME_SYSTEM":"UTC","ARG_OF_PERICENTER":"64.4605","ECCENTRICITY":"0.00015110"},{"SITE":"AFETR","OBJECT_TYPE":"PAYLOAD","TLE_LINE1":"1 47128U 20088G   21314.87865346 -.00000465  00000-0 -12283-4 0  9995","REV_AT_EPOCH":"5400","EPHEMERIS_TYPE":"0","APOAPSIS":"549.731","DECAY_DATE":null,"RA_OF_ASC_NODE":"173.6547","OBJECT_ID":"2020-088G","TLE_LINE2":"2 47128  53.0554 173.6547 0003588 160.5582 199.5545 15.06389473 54003","MEAN_MOTION":"15.06389473","COUNTRY_CODE":"US","MEAN_ELEMENT_THEORY":"SGP4","EPOCH":"2021-11-10T21:05:15.658944","LAUNCH_DATE":"2020-11-25","MEAN_ANOMALY":"199.5545","OBJECT_NAME":"STARLINK-1837","ELEMENT_SET_NO":"999","PERIOD":"95.593","SEMIMAJOR_AXIS":"6925.381","NORAD_CAT_ID":"47128","INCLINATION":"53.0554","RCS_SIZE":"LARGE","BSTAR":"-0.00001228300000","REF_FRAME":"TEME","CLASSIFICATION_TYPE":"U","FILE":"3211038","TIME_SYSTEM":"UTC","MEAN_MOTION_DDOT":"0.0000000000000","GP_ID":"189423677","PERIAPSIS":"544.761","MEAN_MOTION_DOT":"-0.00000465","CENTER_NAME":"EARTH","ECCENTRICITY":"0.00035880","ARG_OF_PERICENTER":"160.5582"},{"TIME_SYSTEM":"UTC","PERIAPSIS":"546.054","MEAN_MOTION_DOT":"0.00004402","CENTER_NAME":"EARTH","GP_ID":"189424427","MEAN_MOTION_DDOT":"0.0000000000000","ECCENTRICITY":"0.00016260","ARG_OF_PERICENTER":"68.5063","ELEMENT_SET_NO":"999","PERIOD":"95.591","OBJECT_NAME":"STARLINK-1838","MEAN_ANOMALY":"291.6099","RCS_SIZE":"LARGE","INCLINATION":"53.0526","NORAD_CAT_ID":"47129","SEMIMAJOR_AXIS":"6925.315","BSTAR":"0.00031417000000","FILE":"3211038","CLASSIFICATION_TYPE":"U","REF_FRAME":"TEME","COUNTRY_CODE":"US","MEAN_MOTION":"15.06410987","TLE_LINE2":"2 47129  53.0526 183.5382 0001626  68.5063 291.6099 15.06410987 53879","OBJECT_ID":"2020-088H","LAUNCH_DATE":"2020-11-25","EPOCH":"2021-11-10T21:46:25.233600","MEAN_ELEMENT_THEORY":"SGP4","TLE_LINE1":"1 47129U 20088H   21314.90723650  .00004402  00000-0  31417-3 0  9993","REV_AT_EPOCH":"5387","OBJECT_TYPE":"PAYLOAD","SITE":"AFETR","DECAY_DATE":null,"APOAPSIS":"548.306","EPHEMERIS_TYPE":"0","RA_OF_ASC_NODE":"183.5382"},{"COUNTRY_CODE":"US","TLE_LINE2":"2 47130  53.0524 203.6063 0001535  69.8988 290.2166 15.06402693 53581","MEAN_MOTION":"15.06402693","OBJECT_ID":"2020-088J","EPOCH":"2021-11-10T21:22:30.568512","LAUNCH_DATE":"2020-11-25","MEAN_ELEMENT_THEORY":"SGP4","OBJECT_TYPE":"PAYLOAD","TLE_LINE1":"1 47130U 20088J   21314.89063158 -.00001582  00000-0 -87298-4 0  9990","REV_AT_EPOCH":"5358","SITE":"AFETR","APOAPSIS":"548.268","DECAY_DATE":null,"EPHEMERIS_TYPE":"0","RA_OF_ASC_NODE":"203.6063","TIME_SYSTEM":"UTC","GP_ID":"189425155","PERIAPSIS":"546.142","MEAN_MOTION_DOT":"-0.00001582","CENTER_NAME":"EARTH","MEAN_MOTION_DDOT":"0.0000000000000","ECCENTRICITY":"0.00015350","ARG_OF_PERICENTER":"69.8988","OBJECT_NAME":"STARLINK-1839","ELEMENT_SET_NO":"999","PERIOD":"95.592","MEAN_ANOMALY":"290.2166","INCLINATION":"53.0524","NORAD_CAT_ID":"47130","RCS_SIZE":"LARGE","SEMIMAJOR_AXIS":"6925.340","BSTAR":"-0.00008729800000","FILE":"3211038","REF_FRAME":"TEME","CLASSIFICATION_TYPE":"U"},{"EPHEMERIS_TYPE":"0","APOAPSIS":"395.217","DECAY_DATE":null,"RA_OF_ASC_NODE":"147.4960","SITE":"AFETR","OBJECT_TYPE":"PAYLOAD","REV_AT_EPOCH":"5437","TLE_LINE1":"1 47131U 20088K   21314.81529000  .00026671  00000-0  35942-3 0  9998","OBJECT_ID":"2020-088K","TLE_LINE2":"2 47131  53.0513 147.4960 0001165  31.3644 328.7437 15.57661852 54379","MEAN_MOTION":"15.57661852","COUNTRY_CODE":"US","MEAN_ELEMENT_THEORY":"SGP4","EPOCH":"2021-11-10T19:34:01.056000","LAUNCH_DATE":"2020-11-25","BSTAR":"0.00035942000000","REF_FRAME":"TEME","CLASSIFICATION_TYPE":"U","FILE":"3211038","MEAN_ANOMALY":"328.7437","OBJECT_NAME":"STARLINK-1840","ELEMENT_SET_NO":"999","PERIOD":"92.446","SEMIMAJOR_AXIS":"6772.563","INCLINATION":"53.0513","NORAD_CAT_ID":"47131","RCS_SIZE":"LARGE","ECCENTRICITY":"0.00011650","ARG_OF_PERICENTER":"31.3644","TIME_SYSTEM":"UTC","MEAN_MOTION_DDOT":"0.0000000000000","GP_ID":"189425353","PERIAPSIS":"393.639","MEAN_MOTION_DOT":"0.00026671","CENTER_NAME":"EARTH"}];
